H1 CPF 01  gfz 2021 03 18 01  5771 terrasarx 
H2 0702601  6201 31698    2021 03 18 00 59 42 2021 03 23 00 00 42   120 1 1  0 0 0
H9
10 0 59293  12942.000000  0   -2629462.261   -916556.623   6290003.578
10 0 59293  13062.000000  0   -1960479.928   -356173.776   6583288.630
10 0 59293  13182.000000  0   -1247531.561    198331.786   6760876.685
10 0 59293  13302.000000  0    -503255.038    736625.508   6819669.428
10 0 59293  13422.000000  0     258994.550   1248884.773   6758642.603
10 0 59293  13542.000000  0    1025383.864   1725977.826   6578862.958
10 0 59293  13662.000000  0    1781851.789   2159626.817   6283470.303
10 0 59293  13782.000000  0    2514366.425   2542551.364   5877625.826
10 0 59293  13902.000000  0    3209185.886   2868592.244   5368428.349
10 0 59293  14022.000000  0    3853119.416   3132813.116   4764796.210
10 0 59293  14142.000000  0    4433780.848   3331577.568   4077315.738
10 0 59293  14262.000000  0    4939832.598   3462600.212   3318062.060
10 0 59293  14382.000000  0    5361216.575   3524971.500   2500387.492
10 0 59293  14502.000000  0    5689359.712   3519152.043   1638684.586
10 0 59293  14622.000000  0    5917353.881   3446940.133    748128.743
10 0 59293  14742.000000  0    6040104.239   3311410.966   -155596.778
10 0 59293  14862.000000  0    6054441.031   3116828.649  -1056585.883
10 0 59293  14982.000000  0    5959192.985   2868533.742  -1938998.141
10 0 59293  15102.000000  0    5755219.622   2572810.767  -2787344.216
10 0 59293  15222.000000  0    5445403.613   2236738.233  -3586763.228
10 0 59293  15342.000000  0    5034603.464   1868024.330  -4323285.514
10 0 59293  15462.000000  0    4529566.692   1474833.013  -4984076.413
10 0 59293  15582.000000  0    3938807.192   1065605.657  -5557653.348
10 0 59293  15702.000000  0    3272452.662    648882.989  -6034076.595
10 0 59293  15822.000000  0    2542063.188    233130.162  -6405111.363
10 0 59293  15942.000000  0    1760426.191   -173431.094  -6664358.124
10 0 59293  16062.000000  0     941332.963   -562980.616  -6807352.716
10 0 59293  16182.000000  0      99337.136   -928246.370  -6831635.976
10 0 59293  16302.000000  0    -750499.220  -1262636.018  -6736789.642
10 0 59293  16422.000000  0   -1592867.896  -1560352.462  -6524443.179
10 0 59293  16542.000000  0   -2412484.385  -1816492.532  -6198249.202
10 0 59293  16662.000000  0   -3194359.026  -2027126.544  -5763826.426
10 0 59293  16782.000000  0   -3924066.908  -2189358.770  -5228674.032
10 0 59293  16902.000000  0   -4588015.367  -2301367.796  -4602054.276
10 0 59293  17022.000000  0   -5173701.069  -2362424.851  -3894842.948
10 0 59293  17142.000000  0   -5669952.528  -2372890.190  -3119350.542
10 0 59293  17262.000000  0   -6067152.966  -2334186.694  -2289114.470
10 0 59293  17382.000000  0   -6357437.125  -2248750.941  -1418665.938
10 0 59293  17502.000000  0   -6534857.592  -2119962.732   -523275.024
10 0 59293  17622.000000  0   -6595515.068  -1952054.196    381321.445
10 0 59293  17742.000000  0   -6537649.270  -1750000.344   1279203.627
10 0 59293  17862.000000  0   -6361686.706  -1519393.728   2154558.070
10 0 59293  17982.000000  0   -6070243.423  -1266307.086   2991965.488
10 0 59293  18102.000000  0   -5668084.145   -997146.813   3776680.123
10 0 59293  18222.000000  0   -5162037.593   -718500.910   4494896.487
10 0 59293  18342.000000  0   -4560869.730   -436986.157   5133993.828
10 0 59293  18462.000000  0   -3875123.299   -159098.199   5682756.365
10 0 59293  18582.000000  0   -3116924.183    108932.722   6131567.987
10 0 59293  18702.000000  0   -2299758.226    361276.767   6472575.670
10 0 59293  18822.000000  0   -1438225.297    592626.504   6699820.820
10 0 59293  18942.000000  0    -547774.576    798305.276   6809337.407
10 0 59293  19062.000000  0     355573.241    974359.735   6799215.946
10 0 59293  19182.000000  0    1255513.202   1117634.815   6669634.407
10 0 59293  19302.000000  0    2135749.307   1225830.588   6422855.395
10 0 59293  19422.000000  0    2980288.682   1297539.232   6063189.248
10 0 59293  19542.000000  0    3773733.563   1332261.962   5596924.050
10 0 59293  19662.000000  0    4501564.883   1330405.530   5032220.446
10 0 59293  19782.000000  0    5150412.199   1293258.905   4378976.147
10 0 59293  19902.000000  0    5708308.966   1222950.165   3648658.594
10 0 59293  20022.000000  0    6164923.319   1122384.666   2854104.634
10 0 59293  20142.000000  0    6511758.064    995164.231   2009294.546
10 0 59293  20262.000000  0    6742318.520    845491.075   1129103.569
10 0 59293  20382.000000  0    6852241.100    678057.622    229033.430
10 0 59293  20502.000000  0    6839380.337    497925.103   -675068.277
10 0 59293  20622.000000  0    6703850.534    310394.040  -1567296.971
10 0 59293  20742.000000  0    6448020.884    120870.183  -2431979.082
10 0 59293  20862.000000  0    6076466.336    -65271.197  -3253953.412
10 0 59293  20982.000000  0    5595875.463   -242818.476  -4018840.840
10 0 59293  21102.000000  0    5014917.108   -406851.094  -4713296.448
10 0 59293  21222.000000  0    4344070.502   -552857.561  -5325237.753
10 0 59293  21342.000000  0    3595425.840   -676842.274  -5844047.206
10 0 59293  21462.000000  0    2782458.101   -775419.729  -6260747.459
10 0 59293  21582.000000  0    1919778.555   -845892.775  -6568145.417
10 0 59293  21702.000000  0    1022871.283   -886314.139  -6760944.599
10 0 59293  21822.000000  0     107817.937   -895531.563  -6835827.669
10 0 59293  21942.000000  0    -808985.896   -873213.898  -6791506.791
10 0 59293  22062.000000  0   -1711117.186   -819859.473  -6628743.460
10 0 59293  22182.000000  0   -2582413.482   -736785.667  -6350336.703
10 0 59293  22302.000000  0   -3407255.592   -626100.424  -5961078.836
10 0 59293  22422.000000  0   -4170843.035   -490656.059  -5467683.188
10 0 59293  22542.000000  0   -4859460.823   -333985.543  -4878679.381
10 0 59293  22662.000000  0   -5460729.167   -160222.678  -4204277.132
10 0 59293  22782.000000  0   -5963834.492     25992.574  -3456200.959
10 0 59293  22902.000000  0   -6359735.410    219622.796  -2647494.156
10 0 59293  23022.000000  0   -6641338.192    415352.974  -1792296.605
10 0 59293  23142.000000  0   -6803637.383    607719.676   -905598.652
10 0 59293  23262.000000  0   -6843817.367    791245.041     -2974.007
10 0 59293  23382.000000  0   -6761307.947    960573.300    899700.680
10 0 59293  23502.000000  0   -6557796.932   1110606.062   1786531.919
10 0 59293  23622.000000  0   -6237197.963   1236632.911   2641898.490
10 0 59293  23742.000000  0   -5805572.348   1334453.576   3450735.893
10 0 59293  23862.000000  0   -5271007.145   1400488.475   4198808.768
10 0 59293  23982.000000  0   -4643454.109   1431875.107   4872964.811
10 0 59293  24102.000000  0   -3934534.616   1426547.833   5461366.149
10 0 59293  24222.000000  0   -3157315.796   1383299.601   5953694.937
10 0 59293  24342.000000  0   -2326062.020   1301824.320   6341331.164
10 0 59293  24462.000000  0   -1455965.564   1182739.485   6617498.512
10 0 59293  24582.000000  0    -562864.221   1027587.665   6777375.314
10 0 59293  24702.000000  0     337047.671    838817.865   6818172.549
10 0 59293  24822.000000  0    1227511.889    619746.626   6739179.120
10 0 59293  24942.000000  0    2092498.667    374500.064   6541773.447
10 0 59293  25062.000000  0    2916494.117    107937.168   6229401.603
10 0 59293  25182.000000  0    3684779.693   -174444.745   5807521.969
10 0 59293  25302.000000  0    4383698.027   -466620.852   5283514.850
10 0 59293  25422.000000  0    5000900.576   -762163.843   4666559.602
10 0 59293  25542.000000  0    5525573.308  -1054381.009   3967479.358
10 0 59293  25662.000000  0    5948635.257  -1336461.052   3198555.213
10 0 59293  25782.000000  0    6262905.732  -1601626.968   2373311.183
10 0 59293  25902.000000  0    6463235.152  -1843291.360   1506274.417
10 0 59293  26022.000000  0    6546596.461  -2055210.594    612714.945
10 0 59293  26142.000000  0    6512134.399  -2231634.830   -291630.681
10 0 59293  26262.000000  0    6361170.252  -2367447.997  -1190845.821
10 0 59293  26382.000000  0    6097162.674  -2458295.566  -2069122.853
10 0 59293  26502.000000  0    5725624.981  -2500696.360  -2911048.809
10 0 59293  26622.000000  0    5254002.345  -2492135.086  -3701880.395
10 0 59293  26742.000000  0    4691513.557  -2431134.648  -4427803.195
10 0 59293  26862.000000  0    4048961.058  -2317306.689  -5076171.484
10 0 59293  26982.000000  0    3338512.819  -2151379.051  -5635722.870
10 0 59293  27102.000000  0    2573464.221  -1935199.953  -6096763.630
10 0 59293  27222.000000  0    1767986.512  -1671719.785  -6451326.310
10 0 59293  27342.000000  0     936862.557  -1364950.308  -6693297.632
10 0 59293  27462.000000  0      95217.083  -1019902.833  -6818512.787
10 0 59293  27582.000000  0    -741753.801   -642506.890  -6824818.979
10 0 59293  27702.000000  0   -1559050.398   -239510.402  -6712108.279
10 0 59293  27822.000000  0   -2342132.427    181638.335  -6482318.884
10 0 59293  27942.000000  0   -3077171.520    612924.312  -6139404.557
10 0 59293  28062.000000  0   -3751290.929   1045913.717  -5689274.622
10 0 59293  28182.000000  0   -4352791.299   1471914.080  -5139702.943
10 0 59293  28302.000000  0   -4871357.289   1882144.734  -4500205.674
10 0 59293  28422.000000  0   -5298241.654   2267915.771  -3781887.270
10 0 59293  28542.000000  0   -5626421.286   2620809.275  -2997256.536
10 0 59293  28662.000000  0   -5850723.490   2932860.535  -2160015.814
10 0 59293  28782.000000  0   -5967918.585   3196735.237  -1284824.613
10 0 59293  28902.000000  0   -5976774.802   3405898.292   -387041.579
10 0 59293  29022.000000  0   -5878073.935   3554769.266    517549.875
10 0 59293  29142.000000  0   -5674586.261   3638859.698   1413027.781
10 0 59293  29262.000000  0   -5371003.378   3654889.057   2283621.002
10 0 59293  29382.000000  0   -4973832.701   3600876.216   3113995.384
99
